[{"OBJECT_NAME":"LUR-1","OBJECT_ID":"2024-149AQ","EPOCH":"2026-03-09T19:05:45.284064","MEAN_MOTION":15.28658648,"ECCENTRICITY":0.00027765,"INCLINATION":97.379,"RA_OF_ASC_NODE":148.4255,"ARG_OF_PERICENTER":309.1571,"MEAN_ANOMALY":50.9421,"EPHEMERIS_TYPE":0,"CLASSIFICATION_TYPE":"U","NORAD_CAT_ID":60506,"ELEMENT_SET_NO":999,"REV_AT_EPOCH":8678,"BSTAR":0.0003298462,"MEAN_MOTION_DOT":9.121e-5,"MEAN_MOTION_DDOT":0},{"OBJECT_NAME":"STARLINK-35787","OBJECT_ID":"2025-288V","EPOCH":"2026-03-09T06:02:08.980512","MEAN_MOTION":15.27565968,"ECCENTRICITY":0.00013355,"INCLINATION":43.0028,"RA_OF_ASC_NODE":25.6444,"ARG_OF_PERICENTER":274.6201,"MEAN_ANOMALY":85.4498,"EPHEMERIS_TYPE":0,"CLASSIFICATION_TYPE":"U","NORAD_CAT_ID":66978,"ELEMENT_SET_NO":999,"REV_AT_EPOCH":1522,"BSTAR":0.00089155583,"MEAN_MOTION_DOT":0.00024342,"MEAN_MOTION_DDOT":0}]
